<?xml version="1.0" encoding="UTF-8"?>
<TrainingCenterDatabase xmlns="http://www.garmin.com/xmlschemas/TrainingCenterDatabase/v2"
  xmlns:xsi="http://www.w3.org/2001/XMLSchema-instance"
  xsi:schemaLocation="http://www.garmin.com/xmlschemas/TrainingCenterDatabase/v2 http://www.garmin.com/xmlschemas/TrainingCenterDatabasev2.xsd">
  <Activities>
    <Activity Sport="Biking">
      <Id>2026-10-10T10:00:00Z</Id>
      <Lap StartTime="2026-10-10T10:00:00Z">
        <TotalTimeSeconds>150.0</TotalTimeSeconds>
        <DistanceMeters>1200.0</DistanceMeters>
        <MaximumSpeed>12.5</MaximumSpeed>
        <Calories>35</Calories>
        <Intensity>Active</Intensity>
        <TriggerMethod>Manual</TriggerMethod>
        <Track>
          <Trackpoint>
            <Time>2026-10-10T10:00:00Z</Time>
            <Position>
              <LatitudeDegrees>48.173200</LatitudeDegrees>
              <LongitudeDegrees>11.546300</LongitudeDegrees>
            </Position>
            <AltitudeMeters>510.0</AltitudeMeters>
            <DistanceMeters>0.0</DistanceMeters>
            <HeartRateBpm><Value>130</Value></HeartRateBpm>
            <Cadence>80</Cadence>
            <Extensions>
              <TPX xmlns="http://www.garmin.com/xmlschemas/ActivityExtension/v2">
                <Speed>7.2</Speed>
                <Watts>180</Watts>
              </TPX>
            </Extensions>
          </Trackpoint>
          <Trackpoint>
            <Time>2026-10-10T10:00:05Z</Time>
            <Position>
              <LatitudeDegrees>48.173500</LatitudeDegrees>
              <LongitudeDegrees>11.546800</LongitudeDegrees>
            </Position>
            <AltitudeMeters>510.5</AltitudeMeters>
            <DistanceMeters>45.0</DistanceMeters>
            <HeartRateBpm><Value>132</Value></HeartRateBpm>
            <Cadence>82</Cadence>
            <Extensions>
              <TPX xmlns="http://www.garmin.com/xmlschemas/ActivityExtension/v2">
                <Speed>7.5</Speed>
                <Watts>195</Watts>
              </TPX>
            </Extensions>
          </Trackpoint>
          <Trackpoint>
            <Time>2026-10-10T10:00:10Z</Time>
            <Position>
              <LatitudeDegrees>48.174000</LatitudeDegrees>
              <LongitudeDegrees>11.547500</LongitudeDegrees>
            </Position>
            <AltitudeMeters>511.0</AltitudeMeters>
            <DistanceMeters>95.0</DistanceMeters>
            <HeartRateBpm><Value>135</Value></HeartRateBpm>
            <Cadence>84</Cadence>
            <Extensions>
              <TPX xmlns="http://www.garmin.com/xmlschemas/ActivityExtension/v2">
                <Speed>7.8</Speed>
                <Watts>210</Watts>
              </TPX>
            </Extensions>
          </Trackpoint>
          <Trackpoint>
            <Time>2026-10-10T10:00:15Z</Time>
            <Position>
              <LatitudeDegrees>48.174500</LatitudeDegrees>
              <LongitudeDegrees>11.548000</LongitudeDegrees>
            </Position>
            <AltitudeMeters>512.0</AltitudeMeters>
            <DistanceMeters>145.0</DistanceMeters>
            <HeartRateBpm><Value>138</Value></HeartRateBpm>
            <Cadence>85</Cadence>
            <Extensions>
              <TPX xmlns="http://www.garmin.com/xmlschemas/ActivityExtension/v2">
                <Speed>8.0</Speed>
                <Watts>220</Watts>
              </TPX>
            </Extensions>
          </Trackpoint>
          <Trackpoint>
            <Time>2026-10-10T10:00:20Z</Time>
            <Position>
              <LatitudeDegrees>48.175000</LatitudeDegrees>
              <LongitudeDegrees>11.549200</LongitudeDegrees>
            </Position>
            <AltitudeMeters>513.0</AltitudeMeters>
            <DistanceMeters>200.0</DistanceMeters>
            <HeartRateBpm><Value>140</Value></HeartRateBpm>
            <Cadence>86</Cadence>
            <Extensions>
              <TPX xmlns="http://www.garmin.com/xmlschemas/ActivityExtension/v2">
                <Speed>8.2</Speed>
                <Watts>230</Watts>
              </TPX>
            </Extensions>
          </Trackpoint>
          <Trackpoint>
            <Time>2026-10-10T10:00:25Z</Time>
            <Position>
              <LatitudeDegrees>48.175500</LatitudeDegrees>
              <LongitudeDegrees>11.550500</LongitudeDegrees>
            </Position>
            <AltitudeMeters>514.5</AltitudeMeters>
            <DistanceMeters>260.0</DistanceMeters>
            <HeartRateBpm><Value>142</Value></HeartRateBpm>
            <Cadence>87</Cadence>
            <Extensions>
              <TPX xmlns="http://www.garmin.com/xmlschemas/ActivityExtension/v2">
                <Speed>8.3</Speed>
                <Watts>240</Watts>
              </TPX>
            </Extensions>
          </Trackpoint>
          <Trackpoint>
            <Time>2026-10-10T10:00:30Z</Time>
            <Position>
              <LatitudeDegrees>48.175800</LatitudeDegrees>
              <LongitudeDegrees>11.551000</LongitudeDegrees>
            </Position>
            <AltitudeMeters>515.0</AltitudeMeters>
            <DistanceMeters>310.0</DistanceMeters>
            <HeartRateBpm><Value>144</Value></HeartRateBpm>
            <Cadence>88</Cadence>
            <Extensions>
              <TPX xmlns="http://www.garmin.com/xmlschemas/ActivityExtension/v2">
                <Speed>8.5</Speed>
                <Watts>245</Watts>
              </TPX>
            </Extensions>
          </Trackpoint>
          <Trackpoint>
            <Time>2026-10-10T10:00:35Z</Time>
            <Position>
              <LatitudeDegrees>48.176200</LatitudeDegrees>
              <LongitudeDegrees>11.552500</LongitudeDegrees>
            </Position>
            <AltitudeMeters>516.5</AltitudeMeters>
            <DistanceMeters>370.0</DistanceMeters>
            <HeartRateBpm><Value>146</Value></HeartRateBpm>
            <Cadence>88</Cadence>
            <Extensions>
              <TPX xmlns="http://www.garmin.com/xmlschemas/ActivityExtension/v2">
                <Speed>8.5</Speed>
                <Watts>250</Watts>
              </TPX>
            </Extensions>
          </Trackpoint>
          <Trackpoint>
            <Time>2026-10-10T10:00:40Z</Time>
            <Position>
              <LatitudeDegrees>48.176500</LatitudeDegrees>
              <LongitudeDegrees>11.554500</LongitudeDegrees>
            </Position>
            <AltitudeMeters>518.0</AltitudeMeters>
            <DistanceMeters>430.0</DistanceMeters>
            <HeartRateBpm><Value>149</Value></HeartRateBpm>
            <Cadence>89</Cadence>
            <Extensions>
              <TPX xmlns="http://www.garmin.com/xmlschemas/ActivityExtension/v2">
                <Speed>8.7</Speed>
                <Watts>260</Watts>
              </TPX>
            </Extensions>
          </Trackpoint>
          <Trackpoint>
            <Time>2026-10-10T10:00:45Z</Time>
            <Position>
              <LatitudeDegrees>48.176000</LatitudeDegrees>
              <LongitudeDegrees>11.556500</LongitudeDegrees>
            </Position>
            <AltitudeMeters>520.0</AltitudeMeters>
            <DistanceMeters>495.0</DistanceMeters>
            <HeartRateBpm><Value>152</Value></HeartRateBpm>
            <Cadence>90</Cadence>
            <Extensions>
              <TPX xmlns="http://www.garmin.com/xmlschemas/ActivityExtension/v2">
                <Speed>8.4</Speed>
                <Watts>275</Watts>
              </TPX>
            </Extensions>
          </Trackpoint>
          <Trackpoint>
            <Time>2026-10-10T10:00:50Z</Time>
            <Position>
              <LatitudeDegrees>48.175500</LatitudeDegrees>
              <LongitudeDegrees>11.558000</LongitudeDegrees>
            </Position>
            <AltitudeMeters>523.0</AltitudeMeters>
            <DistanceMeters>555.0</DistanceMeters>
            <HeartRateBpm><Value>155</Value></HeartRateBpm>
            <Cadence>91</Cadence>
            <Extensions>
              <TPX xmlns="http://www.garmin.com/xmlschemas/ActivityExtension/v2">
                <Speed>8.0</Speed>
                <Watts>290</Watts>
              </TPX>
            </Extensions>
          </Trackpoint>
          <Trackpoint>
            <Time>2026-10-10T10:00:55Z</Time>
            <Position>
              <LatitudeDegrees>48.174800</LatitudeDegrees>
              <LongitudeDegrees>11.559500</LongitudeDegrees>
            </Position>
            <AltitudeMeters>526.5</AltitudeMeters>
            <DistanceMeters>615.0</DistanceMeters>
            <HeartRateBpm><Value>158</Value></HeartRateBpm>
            <Cadence>92</Cadence>
            <Extensions>
              <TPX xmlns="http://www.garmin.com/xmlschemas/ActivityExtension/v2">
                <Speed>7.6</Speed>
                <Watts>305</Watts>
              </TPX>
            </Extensions>
          </Trackpoint>
          <Trackpoint>
            <Time>2026-10-10T10:01:00Z</Time>
            <Position>
              <LatitudeDegrees>48.173800</LatitudeDegrees>
              <LongitudeDegrees>11.560500</LongitudeDegrees>
            </Position>
            <AltitudeMeters>530.0</AltitudeMeters>
            <DistanceMeters>675.0</DistanceMeters>
            <HeartRateBpm><Value>161</Value></HeartRateBpm>
            <Cadence>93</Cadence>
            <Extensions>
              <TPX xmlns="http://www.garmin.com/xmlschemas/ActivityExtension/v2">
                <Speed>7.2</Speed>
                <Watts>315</Watts>
              </TPX>
            </Extensions>
          </Trackpoint>
          <Trackpoint>
            <Time>2026-10-10T10:01:05Z</Time>
            <Position>
              <LatitudeDegrees>48.172800</LatitudeDegrees>
              <LongitudeDegrees>11.561500</LongitudeDegrees>
            </Position>
            <AltitudeMeters>538.0</AltitudeMeters>
            <DistanceMeters>740.0</DistanceMeters>
            <HeartRateBpm><Value>164</Value></HeartRateBpm>
            <Cadence>94</Cadence>
            <Extensions>
              <TPX xmlns="http://www.garmin.com/xmlschemas/ActivityExtension/v2">
                <Speed>6.8</Speed>
                <Watts>330</Watts>
              </TPX>
            </Extensions>
          </Trackpoint>
          <Trackpoint>
            <Time>2026-10-10T10:01:10Z</Time>
            <Position>
              <LatitudeDegrees>48.172000</LatitudeDegrees>
              <LongitudeDegrees>11.562000</LongitudeDegrees>
            </Position>
            <AltitudeMeters>545.0</AltitudeMeters>
            <DistanceMeters>800.0</DistanceMeters>
            <HeartRateBpm><Value>166</Value></HeartRateBpm>
            <Cadence>95</Cadence>
            <Extensions>
              <TPX xmlns="http://www.garmin.com/xmlschemas/ActivityExtension/v2">
                <Speed>6.5</Speed>
                <Watts>340</Watts>
              </TPX>
            </Extensions>
          </Trackpoint>
          <Trackpoint>
            <Time>2026-10-10T10:01:15Z</Time>
            <Position>
              <LatitudeDegrees>48.171200</LatitudeDegrees>
              <LongitudeDegrees>11.561000</LongitudeDegrees>
            </Position>
            <AltitudeMeters>540.0</AltitudeMeters>
            <DistanceMeters>865.0</DistanceMeters>
            <HeartRateBpm><Value>162</Value></HeartRateBpm>
            <Cadence>85</Cadence>
            <Extensions>
              <TPX xmlns="http://www.garmin.com/xmlschemas/ActivityExtension/v2">
                <Speed>9.5</Speed>
                <Watts>150</Watts>
              </TPX>
            </Extensions>
          </Trackpoint>
          <Trackpoint>
            <Time>2026-10-10T10:01:20Z</Time>
            <Position>
              <LatitudeDegrees>48.170500</LatitudeDegrees>
              <LongitudeDegrees>11.560000</LongitudeDegrees>
            </Position>
            <AltitudeMeters>535.0</AltitudeMeters>
            <DistanceMeters>930.0</DistanceMeters>
            <HeartRateBpm><Value>155</Value></HeartRateBpm>
            <Cadence>70</Cadence>
            <Extensions>
              <TPX xmlns="http://www.garmin.com/xmlschemas/ActivityExtension/v2">
                <Speed>11.2</Speed>
                <Watts>80</Watts>
              </TPX>
            </Extensions>
          </Trackpoint>
          <Trackpoint>
            <Time>2026-10-10T10:01:25Z</Time>
            <Position>
              <LatitudeDegrees>48.169500</LatitudeDegrees>
              <LongitudeDegrees>11.558500</LongitudeDegrees>
            </Position>
            <AltitudeMeters>528.0</AltitudeMeters>
            <DistanceMeters>1000.0</DistanceMeters>
            <HeartRateBpm><Value>148</Value></HeartRateBpm>
            <Cadence>0</Cadence>
            <Extensions>
              <TPX xmlns="http://www.garmin.com/xmlschemas/ActivityExtension/v2">
                <Speed>12.5</Speed>
                <Watts>0</Watts>
              </TPX>
            </Extensions>
          </Trackpoint>
          <Trackpoint>
            <Time>2026-10-10T10:01:30Z</Time>
            <Position>
              <LatitudeDegrees>48.169000</LatitudeDegrees>
              <LongitudeDegrees>11.557000</LongitudeDegrees>
            </Position>
            <AltitudeMeters>522.0</AltitudeMeters>
            <DistanceMeters>1070.0</DistanceMeters>
            <HeartRateBpm><Value>142</Value></HeartRateBpm>
            <Cadence>60</Cadence>
            <Extensions>
              <TPX xmlns="http://www.garmin.com/xmlschemas/ActivityExtension/v2">
                <Speed>10.8</Speed>
                <Watts>50</Watts>
              </TPX>
            </Extensions>
          </Trackpoint>
          <Trackpoint>
            <Time>2026-10-10T10:01:35Z</Time>
            <Position>
              <LatitudeDegrees>48.168500</LatitudeDegrees>
              <LongitudeDegrees>11.555000</LongitudeDegrees>
            </Position>
            <AltitudeMeters>518.0</AltitudeMeters>
            <DistanceMeters>1140.0</DistanceMeters>
            <HeartRateBpm><Value>138</Value></HeartRateBpm>
            <Cadence>78</Cadence>
            <Extensions>
              <TPX xmlns="http://www.garmin.com/xmlschemas/ActivityExtension/v2">
                <Speed>9.2</Speed>
                <Watts>160</Watts>
              </TPX>
            </Extensions>
          </Trackpoint>
          <Trackpoint>
            <Time>2026-10-10T10:01:40Z</Time>
            <Position>
              <LatitudeDegrees>48.168000</LatitudeDegrees>
              <LongitudeDegrees>11.553500</LongitudeDegrees>
            </Position>
            <AltitudeMeters>516.0</AltitudeMeters>
            <DistanceMeters>1200.0</DistanceMeters>
            <HeartRateBpm><Value>135</Value></HeartRateBpm>
            <Cadence>82</Cadence>
            <Extensions>
              <TPX xmlns="http://www.garmin.com/xmlschemas/ActivityExtension/v2">
                <Speed>8.5</Speed>
                <Watts>190</Watts>
              </TPX>
            </Extensions>
          </Trackpoint>
        </Track>
      </Lap>
    </Activity>
  </Activities>
</TrainingCenterDatabase>
